HODOYOSHI-4             
1 40011U 14033B   26166.15134712  .00001581  00000+0  17665-3 0  9994
2 40011  97.5449 351.0724 0022596 315.6984  44.2425 14.88127042648509
DEIMOS-2                
1 40013U 14033D   26166.17349644  .00000968  00000+0  96628-4 0  9995
2 40013  97.5836  40.7336 0001606  46.8088 313.3266 14.93719556637424
HODOYOSHI-3             
1 40015U 14033F   26165.96201184  .00000925  00000+0  11255-3 0  9994
2 40015  97.6415 329.0921 0032911   4.6572 355.4943 14.85384521647292
SPOT 7                  
1 40053U 14034A   26166.19539545  .00000285  00000+0  67504-4 0  9996
2 40053  98.0635 228.7381 0001201  91.6141 268.5197 14.60956611636846
SKYSAT-B                
1 40072U 14037D   26166.17506360  .00001192  00000+0  13646-3 0  9992
2 40072  98.3839 125.0253 0004259 290.4163  69.6594 14.88023049645663
WORLDVIEW-3 (WV-3)      
1 40115U 14048A   26166.14595244  .00000736  00000+0  92494-4 0  9990
2 40115  97.8566 241.0069 0001151  28.7082 331.4196 14.85019133641600
GAOFEN-2                
1 40118U 14049A   26166.21688528  .00000938  00000+0  12822-3 0  9990
2 40118  98.0116 230.4256 0006040 234.3918 125.6732 14.80898373638940
YAOGAN-21               
1 40143U 14053A   26166.19587992  .00005855  00000+0  22771-3 0  9990
2 40143  97.1473 206.5168 0009927  99.6296 260.6065 15.26347785654650
YAOGAN-22               
1 40275U 14063A   26166.13230978 -.00000034  00000+0  34072-4 0  9993
2 40275 100.7721 317.3714 0006295 189.9280 170.1707 13.15531093559545
ASNARO                  
1 40298U 14070A   26166.18358954  .00005913  00000+0  28227-3 0  9990
2 40298  97.3460 242.3511 0005446 170.7423 189.3913 15.19409057643700
YAOGAN-24               
1 40310U 14072A   26166.18421950  .00000273  00000+0  47170-4 0  9997
2 40310  98.1481 303.5048 0012530 270.9042  89.0732 14.76219745623421
CBERS 4                 
1 40336U 14079A   26166.22496164 -.00000103  00000+0 -20949-4 0  9995
2 40336  98.3538 223.1179 0001865  65.6504 294.4877 14.35507911603674
YAOGAN-26               
1 40362U 14088A   26166.19344468  .00025563  00000+0  50179-3 0  9991
2 40362  97.0632 166.4490 0006144  71.7530 288.4389 15.47289519637393
SMAP                    
1 40376U 15003A   26166.16535390  .00000359  00000+0  78519-4 0  9992
2 40376  98.1276 173.2885 0001306  95.9313 264.2038 14.63364988607324
KOMPSAT-3A              
1 40536U 15014A   26166.18122956  .00020108  00000+0  29244-3 0  9998
2 40536  97.6881 157.3968 0056341 181.8037 178.3022 15.53911383621501
SENTINEL-2A             
1 40697U 15028A   26166.18671547  .00000008  00000+0  19580-4 0  9996
2 40697  98.5690 241.0665 0001092  89.5057 270.6251 14.30814429573447
GAOFEN-8                
1 40701U 15030A   26166.21063619  .00014915  00000+0  30836-3 0  9992
2 40701  97.6897 359.4619 0008522 194.1428 165.9583 15.45885789611143
CARBONITE 1 (CBNT-1)    
1 40718U 15032D   26166.15914014  .00000876  00000+0  11235-3 0  9992
2 40718  97.6499 344.3105 0013309 305.4368  54.5603 14.83579937589046
YAOGAN-27               
1 40878U 15040A   26166.20406002 -.00000322  00000+0 -73642-3 0  9995
2 40878 100.1144 152.6726 0007621 215.4741 144.5867 13.16068844517402
GAOFEN-9 01             
1 40894U 15047A   26166.17319818  .00000859  00000+0  11160-3 0  9994
2 40894  97.6275 201.9594 0028267 144.1746 216.1371 14.82880378579893
YAOGAN-28               
1 41026U 15064A   26166.16083711  .00005652  00000+0  21313-3 0  9997
2 41026  97.3073 304.4633 0010433 190.4272 169.6752 15.27398664590374
YAOGAN-29               
1 41038U 15069A   26166.15376948 -.00000003  00000+0  62690-5 0  9992
2 41038  98.0027 194.7832 0002670  57.5645 302.5826 14.83082121570328
KENT RIDGE 1            
1 41167U 15077B   26165.67496432  .00003934  00000+0  13031-3 0  9999
2 41167  14.9792 284.6775 0008240 203.0027 156.9926 15.23119109580711
GAOFEN-4                
1 41194U 15083A   26166.04211558 -.00000330  00000+0  00000+0 0  9998
2 41194   0.3508  83.8441 0004375 115.0452 185.3102  1.00269770 38500
JASON-3                 
1 41240U 16002A   26166.21622394 -.00000063  00000+0 -24589-5 0  9993
2 41240  66.0401 129.9787 0008544 272.8825  87.1216 12.87628038486994
SENTINEL-3A             
1 41335U 16011A   26166.18279166  .00000093  00000+0  56369-4 0  9990
2 41335  98.6249 233.5951 0001390 102.3355 257.7981 14.26739446537770
ZIYUAN 3-02 (ZY 3-02)   
1 41556U 16033A   26166.15089142  .00005144  00000+0  23157-3 0  9999
2 41556  97.3840 241.9645 0011230 297.8927  62.1171 15.21465216557677
CARTOSAT-2C             
1 41599U 16040A   26166.15040332  .00004568  00000+0  21935-3 0  9993
2 41599  97.4491 226.1561 0010451 137.4868 222.7177 15.19305911553405
SKYSAT-C1               
1 41601U 16040C   26166.06690289  .00008398  00000+0  23958-3 0  9991
2 41601  96.9560 197.9016 0003653  62.2193 297.9422 15.36271096557543
LAPAN-A3                
1 41603U 16040E   26166.23306535  .00003011  00000+0  96388-4 0  9995
2 41603  97.1485 162.4429 0011128  32.3369 327.8554 15.33093140554510
GAOFEN-3                
1 41727U 16049A   26166.21076961  .00000000  00000+0  13132-4 0  9997
2 41727  98.4006 174.0264 0001348  99.8569 260.2773 14.42215291518367
