OBJECT_NAME,OBJECT_ID,EPOCH,MEAN_MOTION,ECCENTRICITY,INCLINATION,RA_OF_ASC_NODE,ARG_OF_PERICENTER,MEAN_ANOMALY,EPHEMERIS_TYPE,CLASSIFICATION_TYPE,NORAD_CAT_ID,ELEMENT_SET_NO,REV_AT_EPOCH,BSTAR,MEAN_MOTION_DOT,MEAN_MOTION_DDOT
HODOYOSHI-4,2014-033B,2026-06-15T03:37:56.391168,14.88127042,.0022596,97.5449,351.0724,315.6984,44.2425,0,U,40011,999,64850,.17665E-3,.1581E-4,0
DEIMOS-2,2014-033D,2026-06-15T04:09:50.092416,14.93719556,.0001606,97.5836,40.7336,46.8088,313.3266,0,U,40013,999,63742,.96628E-4,.968E-5,0
HODOYOSHI-3,2014-033F,2026-06-14T23:05:17.822976,14.85384521,.0032911,97.6415,329.0921,4.6572,355.4943,0,U,40015,999,64729,.11255E-3,.925E-5,0
SPOT 7,2014-034A,2026-06-15T04:41:22.166880,14.60956611,.0001201,98.0635,228.7381,91.6141,268.5197,0,U,40053,999,63684,.67504E-4,.285E-5,0
SKYSAT-B,2014-037D,2026-06-15T04:12:05.495040,14.88023049,.0004259,98.3839,125.0253,290.4163,69.6594,0,U,40072,999,64566,.13646E-3,.1192E-4,0
WORLDVIEW-3 (WV-3),2014-048A,2026-06-15T03:30:10.290816,14.85019133,.0001151,97.8566,241.0069,28.7082,331.4196,0,U,40115,999,64160,.92494E-4,.736E-5,0
GAOFEN-2,2014-049A,2026-06-15T05:12:18.888192,14.80898373,.000604,98.0116,230.4256,234.3918,125.6732,0,U,40118,999,63894,.12822E-3,.938E-5,0
YAOGAN-21,2014-053A,2026-06-15T04:42:04.025088,15.26347785,.0009927,97.1473,206.5168,99.6296,260.6065,0,U,40143,999,65465,.22771E-3,.5855E-4,0
YAOGAN-22,2014-063A,2026-06-15T03:10:31.564992,13.15531093,.0006295,100.7721,317.3714,189.9280,170.1707,0,U,40275,999,55954,.34072E-4,-.34E-6,0
ASNARO,2014-070A,2026-06-15T04:24:22.136256,15.19409057,.0005446,97.3460,242.3511,170.7423,189.3913,0,U,40298,999,64370,.28227E-3,.5913E-4,0
YAOGAN-24,2014-072A,2026-06-15T04:25:16.564800,14.76219745,.001253,98.1481,303.5048,270.9042,89.0732,0,U,40310,999,62342,.4717E-4,.273E-5,0
CBERS 4,2014-079A,2026-06-15T05:23:56.685696,14.35507911,.0001865,98.3538,223.1179,65.6504,294.4877,0,U,40336,999,60367,-.20949E-4,-.103E-5,0
YAOGAN-26,2014-088A,2026-06-15T04:38:33.620352,15.47289519,.0006144,97.0632,166.4490,71.7530,288.4389,0,U,40362,999,63739,.50179E-3,.25563E-3,0
SMAP,2015-003A,2026-06-15T03:58:06.576960,14.63364988,.0001306,98.1276,173.2885,95.9313,264.2038,0,U,40376,999,60732,.78519E-4,.359E-5,0
KOMPSAT-3A,2015-014A,2026-06-15T04:20:58.233984,15.53911383,.0056341,97.6881,157.3968,181.8037,178.3022,0,U,40536,999,62150,.29244E-3,.20108E-3,0
SENTINEL-2A,2015-028A,2026-06-15T04:28:52.216608,14.30814429,.0001092,98.5690,241.0665,89.5057,270.6251,0,U,40697,999,57344,.1958E-4,.8E-7,0
GAOFEN-8,2015-030A,2026-06-15T05:03:18.966816,15.45885789,.0008522,97.6897,359.4619,194.1428,165.9583,0,U,40701,999,61114,.30836E-3,.14915E-3,0
CARBONITE 1 (CBNT-1),2015-032D,2026-06-15T03:49:09.708096,14.83579937,.0013309,97.6499,344.3105,305.4368,54.5603,0,U,40718,999,58904,.11235E-3,.876E-5,0
YAOGAN-27,2015-040A,2026-06-15T04:53:50.785728,13.16068844,.0007621,100.1144,152.6726,215.4741,144.5867,0,U,40878,999,51740,-.73642E-3,-.322E-5,0
GAOFEN-9 01,2015-047A,2026-06-15T04:09:24.322752,14.82880378,.0028267,97.6275,201.9594,144.1746,216.1371,0,U,40894,999,57989,.1116E-3,.859E-5,0
YAOGAN-28,2015-064A,2026-06-15T03:51:36.326304,15.27398664,.0010433,97.3073,304.4633,190.4272,169.6752,0,U,41026,999,59037,.21313E-3,.5652E-4,0
YAOGAN-29,2015-069A,2026-06-15T03:41:25.683072,14.83082121,.000267,98.0027,194.7832,57.5645,302.5826,0,U,41038,999,57032,.6269E-5,-.3E-7,0
KENT RIDGE 1,2015-077B,2026-06-14T16:11:56.917248,15.23119109,.00082403,14.9792,284.6775,203.0027,156.9926,0,U,41167,999,58071,.13030832E-3,.3934E-4,0
GAOFEN-4,2015-083A,2026-06-15T01:00:38.786112,1.00269770,.0004375,0.3508,83.8441,115.0452,185.3102,0,U,41194,999,3850,0,-.33E-5,0
JASON-3,2016-002A,2026-06-15T05:11:21.748416,12.87628038,.0008544,66.0401,129.9787,272.8825,87.1216,0,U,41240,999,48699,-.24589E-5,-.63E-6,0
SENTINEL-3A,2016-011A,2026-06-15T04:23:13.199424,14.26739446,.000139,98.6249,233.5951,102.3355,257.7981,0,U,41335,999,53777,.56369E-4,.93E-6,0
ZIYUAN 3-02 (ZY 3-02),2016-033A,2026-06-15T03:37:17.018688,15.21465216,.001123,97.3840,241.9645,297.8927,62.1171,0,U,41556,999,55767,.23157E-3,.5144E-4,0
CARTOSAT-2C,2016-040A,2026-06-15T03:36:34.846848,15.19305911,.0010451,97.4491,226.1561,137.4868,222.7177,0,U,41599,999,55340,.21935E-3,.4568E-4,0
SKYSAT-C1,2016-040C,2026-06-15T01:36:20.409696,15.36271096,.0003653,96.9560,197.9016,62.2193,297.9422,0,U,41601,999,55754,.23958E-3,.8398E-4,0
LAPAN-A3,2016-040E,2026-06-15T05:35:36.846240,15.33093140,.0011128,97.1485,162.4429,32.3369,327.8554,0,U,41603,999,55451,.96388E-4,.3011E-4,0
GAOFEN-3,2016-049A,2026-06-15T05:03:30.494304,14.42215291,.0001348,98.4006,174.0264,99.8569,260.2773,0,U,41727,999,51836,.13132E-4,0,0
